{
  "type": "FeatureCollection",
  "features": [
    {
      "type": "Feature",
      "properties": {
        "norad_id": 38857,
        "name": "GSAT0103 (GALILEO-FM3)",
        "group": "gnss",
        "lat": 46.699402423969225,
        "lon": -119.68315576990064,
        "alt_km": 23223.370102708228,
        "timestamp": "2025-12-11T08:58:27.365271+00:00",
        "meta_object_name": "GSAT0103 (GALILEO-FM3)",
        "meta_object_id": "2012-055A",
        "meta_epoch": "2025-12-10T14:16:18.944544",
        "meta_mean_motion": 1.70473311,
        "meta_eccentricity": 0.00025926,
        "meta_inclination": 55.6913,
        "meta_ra_of_asc_node": 106.7254,
        "meta_arg_of_pericenter": 268.6178,
        "meta_mean_anomaly": 91.322,
        "meta_ephemeris_type": 0,
        "meta_classification_type": "U",
        "meta_norad_cat_id": 38857,
        "meta_element_set_no": 999,
        "meta_rev_at_epoch": 8179,
        "meta_bstar": 0,
        "meta_mean_motion_dot": 1.1e-07,
        "meta_mean_motion_ddot": 0,
        "tle_line1": "1 38857U 12055A   25344.59466371  .00000011  00000+0  00000+0 0  9993",
        "tle_line2": "2 38857  55.6913 106.7254 0002592 268.6178  91.3220  1.70473311 81792"
      },
      "geometry": {
        "type": "Point",
        "coordinates": [
          -119.68315576990064,
          46.699402423969225
        ]
      }
    },
    {
      "type": "Feature",
      "properties": {
        "norad_id": 38953,
        "name": "BEIDOU-2 G6 (C02)",
        "group": "gnss",
        "lat": -2.7224462056800647,
        "lon": -61.17943663138898,
        "alt_km": 35773.952822496154,
        "timestamp": "2025-12-11T08:58:27.365286+00:00",
        "meta_object_name": "BEIDOU-2 G6 (C02)",
        "meta_object_id": "2012-059A",
        "meta_epoch": "2025-12-10T20:47:26.918592",
        "meta_mean_motion": 1.0026968,
        "meta_eccentricity": 0.0007636,
        "meta_inclination": 3.9445,
        "meta_ra_of_asc_node": 75.5197,
        "meta_arg_of_pericenter": 289.1731,
        "meta_mean_anomaly": 111.0256,
        "meta_ephemeris_type": 0,
        "meta_classification_type": "U",
        "meta_norad_cat_id": 38953,
        "meta_element_set_no": 999,
        "meta_rev_at_epoch": 4802,
        "meta_bstar": 0,
        "meta_mean_motion_dot": -1.7e-06,
        "meta_mean_motion_ddot": 0,
        "tle_line1": "1 38953U 12059A   25344.86628378 -.00000170  00000+0  00000+0 0  9998",
        "tle_line2": "2 38953   3.9445  75.5197 0007636 289.1731 111.0256  1.00269680 48024"
      },
      "geometry": {
        "type": "Point",
        "coordinates": [
          -61.17943663138898,
          -2.7224462056800647
        ]
      }
    },
    {
      "type": "Feature",
      "properties": {
        "norad_id": 38977,
        "name": "LUCH 5B (SDCM/PRN 125)",
        "group": "gnss",
        "lat": 5.489641909727541,
        "lon": -161.03851268351806,
        "alt_km": 35763.64239324584,
        "timestamp": "2025-12-11T08:58:27.365298+00:00",
        "meta_object_name": "LUCH 5B (SDCM/PRN 125)",
        "meta_object_id": "2012-061A",
        "meta_epoch": "2025-12-11T01:06:29.500128",
        "meta_mean_motion": 1.0027229,
        "meta_eccentricity": 0.0007305,
        "meta_inclination": 10.0781,
        "meta_ra_of_asc_node": 51.7234,
        "meta_arg_of_pericenter": 192.3496,
        "meta_mean_anomaly": 196.2203,
        "meta_ephemeris_type": 0,
        "meta_classification_type": "U",
        "meta_norad_cat_id": 38977,
        "meta_element_set_no": 999,
        "meta_rev_at_epoch": 4772,
        "meta_bstar": 0,
        "meta_mean_motion_dot": -1.35e-06,
        "meta_mean_motion_ddot": 0,
        "tle_line1": "1 38977U 12061A   25345.04617477 -.00000135  00000+0  00000+0 0  9997",
        "tle_line2": "2 38977  10.0781  51.7234 0007305 192.3496 196.2203  1.00272290 47720"
      },
      "geometry": {
        "type": "Point",
        "coordinates": [
          -161.03851268351806,
          5.489641909727541
        ]
      }
    },
    {
      "type": "Feature",
      "properties": {
        "norad_id": 39155,
        "name": "COSMOS 2485 (747)",
        "group": "gnss",
        "lat": 45.71300190594905,
        "lon": -128.17349899046425,
        "alt_km": 19136.544836002155,
        "timestamp": "2025-12-11T08:58:27.365310+00:00",
        "meta_object_name": "COSMOS 2485 (747)",
        "meta_object_id": "2013-019A",
        "meta_epoch": "2025-12-10T17:41:35.437344",
        "meta_mean_motion": 2.13102878,
        "meta_eccentricity": 0.00245732,
        "meta_inclination": 65.3124,
        "meta_ra_of_asc_node": 79.9346,
        "meta_arg_of_pericenter": 229.2052,
        "meta_mean_anomaly": 130.5984,
        "meta_ephemeris_type": 0,
        "meta_classification_type": "U",
        "meta_norad_cat_id": 39155,
        "meta_element_set_no": 999,
        "meta_rev_at_epoch": 9826,
        "meta_bstar": 0,
        "meta_mean_motion_dot": -2.2e-07,
        "meta_mean_motion_ddot": 0,
        "tle_line1": "1 39155U 13019A   25344.73721571 -.00000022  00000+0  00000+0 0  9991",
        "tle_line2": "2 39155  65.3124  79.9346 0024573 229.2052 130.5984  2.13102878 98264"
      },
      "geometry": {
        "type": "Point",
        "coordinates": [
          -128.17349899046425,
          45.71300190594905
        ]
      }
    },
    {
      "type": "Feature",
      "properties": {
        "norad_id": 39166,
        "name": "GPS BIIF-4  (PRN 27)",
        "group": "gnss",
        "lat": 48.08852255062417,
        "lon": 44.45441235160088,
        "alt_km": 20021.202247292927,
        "timestamp": "2025-12-11T08:58:27.365322+00:00",
        "meta_object_name": "GPS BIIF-4  (PRN 27)",
        "meta_object_id": "2013-023A",
        "meta_epoch": "2025-12-10T05:20:05.649504",
        "meta_mean_motion": 2.00565116,
        "meta_eccentricity": 0.0137742,
        "meta_inclination": 54.6542,
        "meta_ra_of_asc_node": 276.6706,
        "meta_arg_of_pericenter": 48.5869,
        "meta_mean_anomaly": 312.6037,
        "meta_ephemeris_type": 0,
        "meta_classification_type": "U",
        "meta_norad_cat_id": 39166,
        "meta_element_set_no": 999,
        "meta_rev_at_epoch": 9209,
        "meta_bstar": 0,
        "meta_mean_motion_dot": -5.9e-07,
        "meta_mean_motion_ddot": 0,
        "tle_line1": "1 39166U 13023A   25344.22228761 -.00000059  00000+0  00000+0 0  9995",
        "tle_line2": "2 39166  54.6542 276.6706 0137742  48.5869 312.6037  2.00565116 92099"
      },
      "geometry": {
        "type": "Point",
        "coordinates": [
          44.45441235160088,
          48.08852255062417
        ]
      }
    },
    {
      "type": "Feature",
      "properties": {
        "norad_id": 39199,
        "name": "IRNSS-1A",
        "group": "gnss",
        "lat": -13.524744538662764,
        "lon": -93.58743254232607,
        "alt_km": 35698.413043950015,
        "timestamp": "2025-12-11T08:58:27.365334+00:00",
        "meta_object_name": "IRNSS-1A",
        "meta_object_id": "2013-034A",
        "meta_epoch": "2025-12-02T19:49:26.431104",
        "meta_mean_motion": 1.00279053,
        "meta_eccentricity": 0.00216608,
        "meta_inclination": 35.2852,
        "meta_ra_of_asc_node": 66.6964,
        "meta_arg_of_pericenter": 185.4059,
        "meta_mean_anomaly": 172.3398,
        "meta_ephemeris_type": 0,
        "meta_classification_type": "U",
        "meta_norad_cat_id": 39199,
        "meta_element_set_no": 999,
        "meta_rev_at_epoch": 4539,
        "meta_bstar": 0,
        "meta_mean_motion_dot": 6.5e-07,
        "meta_mean_motion_ddot": 0,
        "tle_line1": "1 39199U 13034A   25336.82600036  .00000065  00000+0  00000+0 0  9995",
        "tle_line2": "2 39199  35.2852  66.6964 0021660 185.4059 172.3398  1.00279053 45393"
      },
      "geometry": {
        "type": "Point",
        "coordinates": [
          -93.58743254232607,
          -13.524744538662764
        ]
      }
    },
    {
      "type": "Feature",
      "properties": {
        "norad_id": 39533,
        "name": "GPS BIIF-5  (PRN 30)",
        "group": "gnss",
        "lat": 47.158970534225496,
        "lon": -75.66427313648674,
        "alt_km": 20253.392348632904,
        "timestamp": "2025-12-11T08:58:27.365347+00:00",
        "meta_object_name": "GPS BIIF-5  (PRN 30)",
        "meta_object_id": "2014-008A",
        "meta_epoch": "2025-12-10T17:09:32.568192",
        "meta_mean_motion": 2.00574305,
        "meta_eccentricity": 0.0079159,
        "meta_inclination": 53.631,
        "meta_ra_of_asc_node": 157.0072,
        "meta_arg_of_pericenter": 226.4701,
        "meta_mean_anomaly": 132.8778,
        "meta_ephemeris_type": 0,
        "meta_classification_type": "U",
        "meta_norad_cat_id": 39533,
        "meta_element_set_no": 999,
        "meta_rev_at_epoch": 8590,
        "meta_bstar": 0,
        "meta_mean_motion_dot": 7.7e-07,
        "meta_mean_motion_ddot": 0,
        "tle_line1": "1 39533U 14008A   25344.71496028  .00000077  00000+0  00000+0 0  9993",
        "tle_line2": "2 39533  53.6310 157.0072 0079159 226.4701 132.8778  2.00574305 85902"
      },
      "geometry": {
        "type": "Point",
        "coordinates": [
          -75.66427313648674,
          47.158970534225496
        ]
      }
    }
  ]
}